HYPERFIELD-1A           
1 60562U 24149CY  26068.76488211  .00008569  00000+0  30052-3 0  9998
2 60562  97.3842 149.5066 0003865 313.7844  46.3076 15.29681349 86836
STARLINK-35870          
1 66572U 25268R   26067.49582661  .00001142  00000+0  50974-4 0  9997
2 66572  43.0010 354.1122 0000143 225.0235 135.0605 15.27602843 17771
